SKYSAT-A                
1 39418U 13066C   26186.11375971  .00004253  00000+0  24293-3 0  9994
2 39418  97.3796 234.9399 0019751 250.3908 109.5192 15.13077671691198
SKYSAT-B                
1 40072U 14037D   26185.87723848  .00001730  00000+0  19485-3 0  9997
2 40072  98.3847 145.8518 0004728 208.3182 151.7776 14.88075391648593
SKYSAT-C1               
1 41601U 16040C   26186.06138830  .00015073  00000+0  42330-3 0  9995
2 41601  96.9551 216.8145 0001497  20.1771 339.9533 15.36622026560611
SKYSAT-C4               
1 41771U 16058B   26186.35725021  .00024696  00000+0  45403-3 0  9993
2 41771  96.9168 207.3742 0002958 134.2075 225.9421 15.49197861548285
SKYSAT-C5               
1 41772U 16058C   26186.10091346  .00012733  00000+0  38008-3 0  9995
2 41772  97.0455 225.9434 0002214 182.6426 177.4806 15.34742244546497
SKYSAT-C2               
1 41773U 16058D   26186.49120478  .00016348  00000+0  37853-3 0  9990
2 41773  97.0162 207.9008 0002716  27.4889 332.6502 15.42514446547877
SKYSAT-C3               
1 41774U 16058E   26186.31482106  .00035230  00000+0  55736-3 0  9992
2 41774  96.8997 216.4719 0001758 134.8464 225.2934 15.53370393548928
SKYSAT-C11              
1 42987U 17068A   26186.35790816  .00038861  00000+0  50125-3 0  9995
2 42987  97.4369 335.9940 0000445 164.4423 195.6847 15.58907151486077
SKYSAT-C10              
1 42988U 17068B   26186.35214196  .00015835  00000+0  46873-3 0  9999
2 42988  97.4530 323.3818 0001280 108.4758 251.6624 15.34973806485147
SKYSAT-C9               
1 42989U 17068C   26186.34671780  .00019723  00000+0  46293-3 0  9991
2 42989  97.4452 324.4862 0009276  76.0472 284.1806 15.42037710485550
SKYSAT-C8               
1 42990U 17068D   26186.29563034  .00015595  00000+0  42793-3 0  9993
2 42990  97.4548 323.1943 0001213  95.8413 264.2969 15.37350391485096
SKYSAT-C7               
1 42991U 17068E   26186.35489961  .00015369  00000+0  42213-3 0  9993
2 42991  97.4560 324.2451 0006539  52.9349 307.2493 15.37304786485160
SKYSAT-C6               
1 42992U 17068F   26186.34404212  .00014354  00000+0  43423-3 0  9996
2 42992  97.4595 324.1316 0005198 102.0763 258.1062 15.34296872485108
